GEOEYE 1                
1 33331U 08042A   26201.89985434  .00000243  00000+0  54635-4 0  9993
2 33331  98.1322 275.4287 0003554 325.6365  34.4608 14.64652337955085
GAOFEN-8                
1 40701U 15030A   26201.92684453  .00018429  00000+0  36483-3 0  9993
2 40701  97.6901  37.3504 0009772  77.7112 282.5231 15.47090234616661
GAOFEN-9 01             
1 40894U 15047A   26201.93563394  .00000589  00000+0  78383-4 0  9999
2 40894  97.6263 236.0953 0028048  32.3094 327.9831 14.82941840585193
GAOFEN-4                
1 41194U 15083A   26201.28282259 -.00000337  00000+0  00000+0 0  9997
2 41194   0.4407  83.8785 0004167 121.8602 299.8332  1.00270897 38868
GOES 16                 
1 41866U 16071A   26201.88275111 -.00000091  00000+0  00000+0 0  9993
2 41866   0.4183  85.4570 0000658  73.1858 353.0959  1.00271689 35447
GAOFEN-5 01             
1 43461U 18043A   26201.90300102  .00000192  00000+0  49629-4 0  9995
2 43461  98.4595 174.2023 0001756  19.3304 340.7962 14.60625801436612
GAOFEN-6                
1 43484U 18048A   26201.95724738  .00000418  00000+0  67703-4 0  9999
2 43484  98.0949 264.6726 0012017  65.5929 294.6533 14.76387969438371
GEO-KOMPSAT-2A          
1 43823U 18100A   26201.93517113 -.00000344  00000+0  00000+0 0  9991
2 43823   0.0289 144.4621 0002432 313.0409 306.1207  1.00272115 27966
GAOFEN-3 02             
1 49495U 21109A   26201.97470560 -.00000028  00000+0  46195-5 0  9993
2 49495  98.4100 209.5922 0001469 229.2294 130.8769 14.42210790245188
GAOFEN-3 03             
1 52200U 22035A   26201.94735642 -.00000025  00000+0  54729-5 0  9991
2 52200  98.4073 210.0386 0001784  87.6701 272.4693 14.42218360225712
