{
 "generated_at": "2026-07-21T07:32:50Z",
 "sources": [
  {
   "name": "CelesTrak",
   "url": "https://celestrak.org/NORAD/elements/",
   "license": "frei verfügbar; Attribution. Ursprünglich USSPACECOM/Space-Track."
  },
  {
   "name": "GCAT (J. McDowell, planet4589.org)",
   "url": "https://planet4589.org/space/gcat/",
   "license": "CC-BY 4.0"
  }
 ],
 "satellites": [
  {
   "norad": 49495,
   "name": "GAOFEN-3 02",
   "intl": "2021-109A",
   "group": "sar",
   "gcat": {
    "class": "C",
    "category": "IMG-R",
    "owner": "GWHYZ",
    "state": "CN"
   },
   "omm": {
    "OBJECT_NAME": "GAOFEN-3 02",
    "OBJECT_ID": "2021-109A",
    "EPOCH": "2026-07-20T23:23:34.563840",
    "MEAN_MOTION": 14.4221079,
    "ECCENTRICITY": 0.00014692,
    "INCLINATION": 98.41,
    "RA_OF_ASC_NODE": 209.5922,
    "ARG_OF_PERICENTER": 229.2294,
    "MEAN_ANOMALY": 130.8769,
    "EPHEMERIS_TYPE": 0,
    "CLASSIFICATION_TYPE": "U",
    "NORAD_CAT_ID": 49495,
    "ELEMENT_SET_NO": 999,
    "REV_AT_EPOCH": 24518,
    "BSTAR": 0.000004619538,
    "MEAN_MOTION_DOT": -2.8e-7,
    "MEAN_MOTION_DDOT": 0
   }
  },
  {
   "norad": 52200,
   "name": "GAOFEN-3 03",
   "intl": "2022-035A",
   "group": "sar",
   "gcat": {
    "class": "C",
    "category": "IMG-R",
    "owner": "GWHYZ",
    "state": "CN"
   },
   "omm": {
    "OBJECT_NAME": "GAOFEN-3 03",
    "OBJECT_ID": "2022-035A",
    "EPOCH": "2026-07-20T22:44:11.594688",
    "MEAN_MOTION": 14.4221836,
    "ECCENTRICITY": 0.00017842,
    "INCLINATION": 98.4073,
    "RA_OF_ASC_NODE": 210.0386,
    "ARG_OF_PERICENTER": 87.6701,
    "MEAN_ANOMALY": 272.4693,
    "EPHEMERIS_TYPE": 0,
    "CLASSIFICATION_TYPE": "U",
    "NORAD_CAT_ID": 52200,
    "ELEMENT_SET_NO": 999,
    "REV_AT_EPOCH": 22571,
    "BSTAR": 0.000005472887,
    "MEAN_MOTION_DOT": -2.5e-7,
    "MEAN_MOTION_DDOT": 0
   }
  },
  {
   "norad": 41194,
   "name": "GAOFEN-4",
   "intl": "2015-083A",
   "group": "resource",
   "gcat": {
    "class": "C",
    "category": "IMG",
    "owner": "CNSAS",
    "state": "CN"
   },
   "omm": {
    "OBJECT_NAME": "GAOFEN-4",
    "OBJECT_ID": "2015-083A",
    "EPOCH": "2026-07-20T06:47:15.871776",
    "MEAN_MOTION": 1.00270897,
    "ECCENTRICITY": 0.00041678,
    "INCLINATION": 0.4407,
    "RA_OF_ASC_NODE": 83.8785,
    "ARG_OF_PERICENTER": 121.8602,
    "MEAN_ANOMALY": 299.8332,
    "EPHEMERIS_TYPE": 0,
    "CLASSIFICATION_TYPE": "U",
    "NORAD_CAT_ID": 41194,
    "ELEMENT_SET_NO": 999,
    "REV_AT_EPOCH": 3886,
    "BSTAR": 0,
    "MEAN_MOTION_DOT": -0.00000337,
    "MEAN_MOTION_DDOT": 0
   }
  },
  {
   "norad": 43461,
   "name": "GAOFEN-5 01",
   "intl": "2018-043A",
   "group": "resource",
   "gcat": {
    "class": null,
    "category": null,
    "owner": null,
    "state": null
   },
   "omm": {
    "OBJECT_NAME": "GAOFEN-5 01",
    "OBJECT_ID": "2018-043A",
    "EPOCH": "2026-07-20T21:40:19.288128",
    "MEAN_MOTION": 14.60625801,
    "ECCENTRICITY": 0.00017567,
    "INCLINATION": 98.4595,
    "RA_OF_ASC_NODE": 174.2023,
    "ARG_OF_PERICENTER": 19.3304,
    "MEAN_ANOMALY": 340.7962,
    "EPHEMERIS_TYPE": 0,
    "CLASSIFICATION_TYPE": "U",
    "NORAD_CAT_ID": 43461,
    "ELEMENT_SET_NO": 999,
    "REV_AT_EPOCH": 43661,
    "BSTAR": 0.000049628773,
    "MEAN_MOTION_DOT": 0.00000192,
    "MEAN_MOTION_DDOT": 0
   }
  },
  {
   "norad": 43484,
   "name": "GAOFEN-6",
   "intl": "2018-048A",
   "group": "resource",
   "gcat": {
    "class": "C",
    "category": "IMG",
    "owner": "CNSAS",
    "state": "CN"
   },
   "omm": {
    "OBJECT_NAME": "GAOFEN-6",
    "OBJECT_ID": "2018-048A",
    "EPOCH": "2026-07-20T22:58:26.173632",
    "MEAN_MOTION": 14.76387969,
    "ECCENTRICITY": 0.00120172,
    "INCLINATION": 98.0949,
    "RA_OF_ASC_NODE": 264.6726,
    "ARG_OF_PERICENTER": 65.5929,
    "MEAN_ANOMALY": 294.6533,
    "EPHEMERIS_TYPE": 0,
    "CLASSIFICATION_TYPE": "U",
    "NORAD_CAT_ID": 43484,
    "ELEMENT_SET_NO": 999,
    "REV_AT_EPOCH": 43837,
    "BSTAR": 0.000067703415,
    "MEAN_MOTION_DOT": 0.00000418,
    "MEAN_MOTION_DDOT": 0
   }
  },
  {
   "norad": 40701,
   "name": "GAOFEN-8",
   "intl": "2015-030A",
   "group": "resource",
   "gcat": {
    "class": "D",
    "category": "IMG",
    "owner": "ZZB",
    "state": "CN"
   },
   "omm": {
    "OBJECT_NAME": "GAOFEN-8",
    "OBJECT_ID": "2015-030A",
    "EPOCH": "2026-07-20T22:14:39.367392",
    "MEAN_MOTION": 15.47090234,
    "ECCENTRICITY": 0.00097722,
    "INCLINATION": 97.6901,
    "RA_OF_ASC_NODE": 37.3504,
    "ARG_OF_PERICENTER": 77.7112,
    "MEAN_ANOMALY": 282.5231,
    "EPHEMERIS_TYPE": 0,
    "CLASSIFICATION_TYPE": "U",
    "NORAD_CAT_ID": 40701,
    "ELEMENT_SET_NO": 999,
    "REV_AT_EPOCH": 61666,
    "BSTAR": 0.00036483105,
    "MEAN_MOTION_DOT": 0.00018429,
    "MEAN_MOTION_DDOT": 0
   }
  },
  {
   "norad": 40894,
   "name": "GAOFEN-9 01",
   "intl": "2015-047A",
   "group": "resource",
   "gcat": {
    "class": null,
    "category": null,
    "owner": null,
    "state": null
   },
   "omm": {
    "OBJECT_NAME": "GAOFEN-9 01",
    "OBJECT_ID": "2015-047A",
    "EPOCH": "2026-07-20T22:27:18.772416",
    "MEAN_MOTION": 14.8294184,
    "ECCENTRICITY": 0.00280488,
    "INCLINATION": 97.6263,
    "RA_OF_ASC_NODE": 236.0953,
    "ARG_OF_PERICENTER": 32.3094,
    "MEAN_ANOMALY": 327.9831,
    "EPHEMERIS_TYPE": 0,
    "CLASSIFICATION_TYPE": "U",
    "NORAD_CAT_ID": 40894,
    "ELEMENT_SET_NO": 999,
    "REV_AT_EPOCH": 58519,
    "BSTAR": 0.000078383025,
    "MEAN_MOTION_DOT": 0.00000589,
    "MEAN_MOTION_DDOT": 0
   }
  },
  {
   "norad": 43823,
   "name": "GEO-KOMPSAT-2A",
   "intl": "2018-100A",
   "group": "weather",
   "gcat": {
    "class": "C",
    "category": "MET",
    "owner": "KARI",
    "state": "KR"
   },
   "omm": {
    "OBJECT_NAME": "GEO-KOMPSAT-2A",
    "OBJECT_ID": "2018-100A",
    "EPOCH": "2026-07-20T22:26:38.785632",
    "MEAN_MOTION": 1.00272115,
    "ECCENTRICITY": 0.00024324,
    "INCLINATION": 0.0289,
    "RA_OF_ASC_NODE": 144.4621,
    "ARG_OF_PERICENTER": 313.0409,
    "MEAN_ANOMALY": 306.1207,
    "EPHEMERIS_TYPE": 0,
    "CLASSIFICATION_TYPE": "U",
    "NORAD_CAT_ID": 43823,
    "ELEMENT_SET_NO": 999,
    "REV_AT_EPOCH": 2796,
    "BSTAR": 0,
    "MEAN_MOTION_DOT": -0.00000344,
    "MEAN_MOTION_DDOT": 0
   }
  },
  {
   "norad": 33331,
   "name": "GEOEYE 1",
   "intl": "2008-042A",
   "group": "resource",
   "gcat": {
    "class": null,
    "category": "IMG",
    "owner": "GEYE",
    "state": "US"
   },
   "omm": {
    "OBJECT_NAME": "GEOEYE 1",
    "OBJECT_ID": "2008-042A",
    "EPOCH": "2026-07-20T21:35:47.414976",
    "MEAN_MOTION": 14.64652337,
    "ECCENTRICITY": 0.00035548,
    "INCLINATION": 98.1322,
    "RA_OF_ASC_NODE": 275.4287,
    "ARG_OF_PERICENTER": 325.6365,
    "MEAN_ANOMALY": 34.4608,
    "EPHEMERIS_TYPE": 0,
    "CLASSIFICATION_TYPE": "U",
    "NORAD_CAT_ID": 33331,
    "ELEMENT_SET_NO": 999,
    "REV_AT_EPOCH": 95508,
    "BSTAR": 0.00005463467,
    "MEAN_MOTION_DOT": 0.00000243,
    "MEAN_MOTION_DDOT": 0
   }
  },
  {
   "norad": 41866,
   "name": "GOES 16",
   "intl": "2016-071A",
   "group": "weather",
   "gcat": {
    "class": "C",
    "category": "MET",
    "owner": "NOAA",
    "state": "US"
   },
   "omm": {
    "OBJECT_NAME": "GOES 16",
    "OBJECT_ID": "2016-071A",
    "EPOCH": "2026-07-20T21:11:09.695904",
    "MEAN_MOTION": 1.00271689,
    "ECCENTRICITY": 0.00006587,
    "INCLINATION": 0.4183,
    "RA_OF_ASC_NODE": 85.457,
    "ARG_OF_PERICENTER": 73.1858,
    "MEAN_ANOMALY": 353.0959,
    "EPHEMERIS_TYPE": 0,
    "CLASSIFICATION_TYPE": "U",
    "NORAD_CAT_ID": 41866,
    "ELEMENT_SET_NO": 999,
    "REV_AT_EPOCH": 3544,
    "BSTAR": 0,
    "MEAN_MOTION_DOT": -9.1e-7,
    "MEAN_MOTION_DDOT": 0
   }
  }
 ]
}
